[{"OBJECT_NAME":"NEXSAT-1","OBJECT_ID":"2024-024E","EPOCH":"2026-03-09T22:47:24.778176","MEAN_MOTION":15.32166372,"ECCENTRICITY":0.00099795,"INCLINATION":97.3124,"RA_OF_ASC_NODE":144.1918,"ARG_OF_PERICENTER":108.5709,"MEAN_ANOMALY":251.6617,"EPHEMERIS_TYPE":0,"CLASSIFICATION_TYPE":"U","NORAD_CAT_ID":58921,"ELEMENT_SET_NO":999,"REV_AT_EPOCH":11669,"BSTAR":0.00031433612,"MEAN_MOTION_DOT":9.702e-5,"MEAN_MOTION_DDOT":0},{"OBJECT_NAME":"STARLINK-35718","OBJECT_ID":"2025-283S","EPOCH":"2026-03-09T03:36:09.616320","MEAN_MOTION":15.30205121,"ECCENTRICITY":0.00013865,"INCLINATION":53.1623,"RA_OF_ASC_NODE":26.5203,"ARG_OF_PERICENTER":41.6262,"MEAN_ANOMALY":318.4844,"EPHEMERIS_TYPE":0,"CLASSIFICATION_TYPE":"U","NORAD_CAT_ID":66894,"ELEMENT_SET_NO":999,"REV_AT_EPOCH":1576,"BSTAR":0.0013287102,"MEAN_MOTION_DOT":0.00039207,"MEAN_MOTION_DDOT":0}]
